{
  "norad_id": 63210,
  "name": "JINJUSAT-1B",
  "history": [
    {
      "epoch": "2026-03-28T21:14:01.432320Z",
      "apogee_km": 476.10545906069456,
      "perigee_km": 470.0804874222249,
      "latitude_deg": -1.3321059580693842e-05,
      "longitude_deg": -160.15854055128014,
      "height_km": 473.87008840387705,
      "semi_major_axis_km": 6851.229973241459,
      "eccentricity": 0.0004397,
      "inclination_deg": 97.4098,
      "raan_deg": 344.6462,
      "arg_perigee_deg": 39.5544,
      "mean_anomaly_deg": 320.6017,
      "mean_motion_rev_day": 15.30911
    },
    {
      "epoch": "2026-03-29T03:30:30.642336Z",
      "apogee_km": 476.0250485734232,
      "perigee_km": 470.0590418608481,
      "latitude_deg": 6.143456798998169e-05,
      "longitude_deg": 105.72314532902786,
      "height_km": 473.81948308043593,
      "semi_major_axis_km": 6851.179045217135,
      "eccentricity": 0.0004354,
      "inclination_deg": 97.4098,
      "raan_deg": 344.9073,
      "arg_perigee_deg": 38.8694,
      "mean_anomaly_deg": 321.286,
      "mean_motion_rev_day": 15.3092807
    },
    {
      "epoch": "2026-03-30T04:36:25.611840Z",
      "apogee_km": 475.7427335733555,
      "perigee_km": 470.04130722258014,
      "latitude_deg": 5.240942399648142e-05,
      "longitude_deg": 89.25774456809927,
      "height_km": 473.70770829270157,
      "semi_major_axis_km": 6851.0290203979675,
      "eccentricity": 0.0004161,
      "inclination_deg": 97.4098,
      "raan_deg": 345.9517,
      "arg_perigee_deg": 36.7287,
      "mean_anomaly_deg": 323.4239,
      "mean_motion_rev_day": 15.30978357
    },
    {
      "epoch": "2026-03-30T04:36:25.612704Z",
      "apogee_km": 475.74293910422693,
      "perigee_km": 470.0411016917096,
      "latitude_deg": 5.036139681798081e-05,
      "longitude_deg": 89.25774122311854,
      "height_km": 473.7075435276387,
      "semi_major_axis_km": 6851.0290203979675,
      "eccentricity": 0.00041613,
      "inclination_deg": 97.4098,
      "raan_deg": 345.9517,
      "arg_perigee_deg": 36.7287,
      "mean_anomaly_deg": 323.4239,
      "mean_motion_rev_day": 15.30978357
    },
    {
      "epoch": "2026-03-30T10:52:53.874912Z",
      "apogee_km": 475.70887050226156,
      "perigee_km": 469.99747403524816,
      "latitude_deg": -2.8126285456391592e-05,
      "longitude_deg": -4.856392791968839,
      "height_km": 473.6486184002512,
      "semi_major_axis_km": 6850.990172268755,
      "eccentricity": 0.00041683,
      "inclination_deg": 97.4099,
      "raan_deg": 346.213,
      "arg_perigee_deg": 36.1776,
      "mean_anomaly_deg": 323.9746,
      "mean_motion_rev_day": 15.30991379
    },
    {
      "epoch": "2026-03-31T10:24:38.166048Z",
      "apogee_km": 475.4933960498638,
      "perigee_km": 469.94557246891145,
      "latitude_deg": -1.4237175782136093e-05,
      "longitude_deg": 2.2220598002852032,
      "height_km": 473.5180708858905,
      "semi_major_axis_km": 6850.856484259388,
      "eccentricity": 0.0004049,
      "inclination_deg": 97.4097,
      "raan_deg": 347.1923,
      "arg_perigee_deg": 33.8999,
      "mean_anomaly_deg": 326.25,
      "mean_motion_rev_day": 15.31036193
    },
    {
      "epoch": "2026-04-01T11:30:26.828352Z",
      "apogee_km": 475.27508661243246,
      "perigee_km": 469.90274734833565,
      "latitude_deg": -1.6056732578290494e-05,
      "longitude_deg": -14.216889210073546,
      "height_km": 473.3891521577523,
      "semi_major_axis_km": 6850.725916980384,
      "eccentricity": 0.0003921,
      "inclination_deg": 97.4096,
      "raan_deg": 348.2368,
      "arg_perigee_deg": 31.053,
      "mean_anomaly_deg": 329.0942,
      "mean_motion_rev_day": 15.31079963
    },
    {
      "epoch": "2026-04-02T15:44:25.795104Z",
      "apogee_km": 475.04620215825344,
      "perigee_km": 469.77662330821113,
      "latitude_deg": -1.094473916036689e-05,
      "longitude_deg": -77.69707358327683,
      "height_km": 473.2055472141017,
      "semi_major_axis_km": 6850.548412733232,
      "eccentricity": 0.00038461,
      "inclination_deg": 97.4089,
      "raan_deg": 349.4118,
      "arg_perigee_deg": 28.8531,
      "mean_anomaly_deg": 331.2922,
      "mean_motion_rev_day": 15.31139471
    },
    {
      "epoch": "2026-04-02T23:34:57.924768Z",
      "apogee_km": 474.9107391977768,
      "perigee_km": 469.73836670683613,
      "latitude_deg": -1.1718016448179619e-05,
      "longitude_deg": 164.67308304319528,
      "height_km": 473.1513052017726,
      "semi_major_axis_km": 6850.461552952306,
      "eccentricity": 0.00037752,
      "inclination_deg": 97.4088,
      "raan_deg": 349.7379,
      "arg_perigee_deg": 28.3856,
      "mean_anomaly_deg": 331.759,
      "mean_motion_rev_day": 15.31168592
    },
    {
      "epoch": "2026-04-03T16:50:07.399392Z",
      "apogee_km": 474.6823365407281,
      "perigee_km": 469.7158428756893,
      "latitude_deg": 2.9436972891627053e-05,
      "longitude_deg": -94.10644033187614,
      "height_km": 473.07281828422936,
      "semi_major_axis_km": 6850.336089708208,
      "eccentricity": 0.0003625,
      "inclination_deg": 97.4084,
      "raan_deg": 350.4564,
      "arg_perigee_deg": 26.1706,
      "mean_anomaly_deg": 333.9718,
      "mean_motion_rev_day": 15.31210657
    },
    {
      "epoch": "2026-04-04T14:47:33.094464Z",
      "apogee_km": 474.4358439193784,
      "perigee_km": 469.6448298899477,
      "latitude_deg": -3.702029899284282e-05,
      "longitude_deg": -63.45154274260081,
      "height_km": 472.9438858342506,
      "semi_major_axis_km": 6850.177336904663,
      "eccentricity": 0.0003497,
      "inclination_deg": 97.4082,
      "raan_deg": 351.3701,
      "arg_perigee_deg": 23.3505,
      "mean_anomaly_deg": 336.7894,
      "mean_motion_rev_day": 15.31263886
    },
    {
      "epoch": "2026-04-05T11:10:50.598624Z",
      "apogee_km": 474.21727433722845,
      "perigee_km": 469.6326648622153,
      "latitude_deg": 8.138049434916376e-05,
      "longitude_deg": -9.263206691505475,
      "height_km": 472.8885497422198,
      "semi_major_axis_km": 6850.061969599722,
      "eccentricity": 0.00033464,
      "inclination_deg": 97.4079,
      "raan_deg": 352.2187,
      "arg_perigee_deg": 21.0285,
      "mean_anomaly_deg": 339.1094,
      "mean_motion_rev_day": 15.3130257
    },
    {
      "epoch": "2026-04-05T15:53:08.267136Z",
      "apogee_km": 474.18975499994303,
      "perigee_km": 469.6098204036862,
      "latitude_deg": -5.229881621907848e-05,
      "longitude_deg": -79.83433226049638,
      "height_km": 472.85987411007585,
      "semi_major_axis_km": 6850.036787701814,
      "eccentricity": 0.0003343,
      "inclination_deg": 97.4079,
      "raan_deg": 352.4144,
      "arg_perigee_deg": 20.6243,
      "mean_anomaly_deg": 339.5132,
      "mean_motion_rev_day": 15.31311014
    },
    {
      "epoch": "2026-04-06T06:00:00.677376Z",
      "apogee_km": 474.04804626882014,
      "perigee_km": 469.6098163426077,
      "latitude_deg": 5.513759233760772e-06,
      "longitude_deg": 68.45501872253898,
      "height_km": 472.8500430497439,
      "semi_major_axis_km": 6849.965931305714,
      "eccentricity": 0.00032396,
      "inclination_deg": 97.4077,
      "raan_deg": 353.0018,
      "arg_perigee_deg": 20.223,
      "mean_anomaly_deg": 339.9139,
      "mean_motion_rev_day": 15.31334774
    },
    {
      "epoch": "2026-04-07T10:13:43.103712Z",
      "apogee_km": 473.8247479008005,
      "perigee_km": 469.557852855929,
      "latitude_deg": 4.2961129077506846e-05,
      "longitude_deg": 5.043833050684844,
      "height_km": 472.7523237849841,
      "semi_major_axis_km": 6849.8283003783645,
      "eccentricity": 0.00031146,
      "inclination_deg": 97.4073,
      "raan_deg": 354.1767,
      "arg_perigee_deg": 16.7581,
      "mean_anomaly_deg": 343.3763,
      "mean_motion_rev_day": 15.31380927
    }
  ]
}